0 AMAZONAS 3
1 39078U 13006A   13283.46892916 -.00000300  00000-0  00000+0 0  2041
2 39078 000.0220 219.4192 0004897 346.1535 281.4994 01.00272138  2515
0 AMAZONAS 3
1 39078U 13006A   13285.09144823 -.00000305  00000-0  00000+0 0  2055
2 39078 000.0189 215.2503 0004953 350.0702 147.4560 01.00271366  2525
0 AMAZONAS 3
1 39078U 13006A   13286.08842500 -.00000307  00000-0  00000+0 0  2065
2 39078 000.0178 211.3449 0005010 354.1848 147.1396 01.00271101  2532
0 AMAZONAS 3
1 39078U 13006A   13287.36557282 -.00000308  00000-0  00000+0 0  2079
2 39078 000.0164 206.4420 0005134 359.2015 248.0491 01.00270311  2551
0 AMAZONAS 3
1 39078U 13006A   13288.24208593 -.00000308  00000-0  00000+0 0  2086
2 39078 000.0172 211.5126 0005329 352.5525 206.0351 01.00270217  2563
0 AMAZONAS 3
1 39078U 13006A   13289.84066972 -.00000306  00000-0  00000+0 0  2095
2 39078 000.0212 212.6294 0005532 355.4682 059.0584 01.00270061  2570
0 AMAZONAS 3
1 39078U 13006A   13290.06429101 -.00000305  00000-0  00000+0 0  2109
2 39078 000.0216 213.7414 0005532 354.3606 139.7772 01.00270022  2576
0 AMAZONAS 3
1 39078U 13006A   13291.06665001 -.00000303  00000-0  00000+0 0  2110
2 39078 000.0188 211.9589 0005468 356.7536 141.0009 01.00270071  2587
0 AMAZONAS 3
1 39078U 13006A   13292.24422711 -.00000301  00000-0  00000+0 0  2129
2 39078 000.0203 217.4536 0004926 353.1510 204.2056 01.00271047  2600
0 AMAZONAS 3
1 39078U 13006A   13293.18412584 -.00000299  00000-0  00000+0 0  2137
2 39078 000.0190 216.6409 0004860 353.7328 183.7341 01.00271651  2615
0 AMAZONAS 3
1 39078U 13006A   13294.25768788 -.00000297  00000-0  00000+0 0  2145
2 39078 000.0181 213.5071 0005414 351.4010 216.7521 01.00272665  2629
0 AMAZONAS 3
1 39078U 13006A   13295.24848139 -.00000296  00000-0  00000+0 0  2154
2 39078 000.0190 216.5029 0005789 355.1045 207.7200 01.00273453  2630
